{
  "norad_id": 52598,
  "name": "STARLINK-4019",
  "history": [
    {
      "epoch": "2026-03-28T16:55:02.317152Z",
      "apogee_km": 540.6734111363285,
      "perigee_km": 538.8104263435125,
      "latitude_deg": -3.0093035732835346e-05,
      "longitude_deg": 118.87321772593779,
      "height_km": 540.6564150428258,
      "semi_major_axis_km": 6917.878918739921,
      "eccentricity": 0.00013465,
      "inclination_deg": 53.2152,
      "raan_deg": 198.7544,
      "arg_perigee_deg": 91.1688,
      "mean_anomaly_deg": 268.9458,
      "mean_motion_rev_day": 15.08840481
    },
    {
      "epoch": "2026-03-29T00:51:57.640320Z",
      "apogee_km": 540.6032831400917,
      "perigee_km": 538.8392292847575,
      "latitude_deg": 6.370739819057214e-05,
      "longitude_deg": -2.169967369817636,
      "height_km": 540.6060732236965,
      "semi_major_axis_km": 6917.858256212424,
      "eccentricity": 0.0001275,
      "inclination_deg": 53.2162,
      "raan_deg": 197.2681,
      "arg_perigee_deg": 89.2937,
      "mean_anomaly_deg": 270.8202,
      "mean_motion_rev_day": 15.08847241
    }
  ]
}